CCSDS_OMM_VERS = 2.0
CREATION_DATE  = 
ORIGINATOR     = 

OBJECT_NAME    = SL-4 R/B
OBJECT_ID      = 2014-021B
CENTER_NAME    = EARTH
REF_FRAME      = TEME
TIME_SYSTEM    = UTC
MEAN_ELEMENT_THEORY = SGP/SGP4

EPOCH          = 2026-01-11T04:45:39.437568
MEAN_MOTION    = 15.37458421
ECCENTRICITY   = .00995305
INCLINATION    = 51.6074
RA_OF_ASC_NODE = 257.3506
ARG_OF_PERICENTER = 253.0289
MEAN_ANOMALY   = 105.9766

EPHEMERIS_TYPE = 0
CLASSIFICATION_TYPE = U
NORAD_CAT_ID   = 39679
ELEMENT_SET_NO = 999
REV_AT_EPOCH   = 64742
BSTAR          = .29849888E-3
MEAN_MOTION_DOT = .12759E-3
MEAN_MOTION_DDOT = 0

CCSDS_OMM_VERS = 2.0
CREATION_DATE  = 
ORIGINATOR     = 

OBJECT_NAME    = ALOS-2
OBJECT_ID      = 2014-029A
CENTER_NAME    = EARTH
REF_FRAME      = TEME
TIME_SYSTEM    = UTC
MEAN_ELEMENT_THEORY = SGP/SGP4

EPOCH          = 2026-01-11T07:10:00.042240
MEAN_MOTION    = 14.79471126
ECCENTRICITY   = .00014271
INCLINATION    = 97.9204
RA_OF_ASC_NODE = 110.7215
ARG_OF_PERICENTER = 98.5994
MEAN_ANOMALY   = 261.5380

EPHEMERIS_TYPE = 0
CLASSIFICATION_TYPE = U
NORAD_CAT_ID   = 39766
ELEMENT_SET_NO = 999
REV_AT_EPOCH   = 62838
BSTAR          = .96236623E-4
MEAN_MOTION_DOT = .667E-5
MEAN_MOTION_DDOT = 0

CCSDS_OMM_VERS = 2.0
CREATION_DATE  = 
ORIGINATOR     = 

OBJECT_NAME    = YAOGAN-29
OBJECT_ID      = 2015-069A
CENTER_NAME    = EARTH
REF_FRAME      = TEME
TIME_SYSTEM    = UTC
MEAN_ELEMENT_THEORY = SGP/SGP4

EPOCH          = 2026-01-11T07:21:49.591008
MEAN_MOTION    = 14.82923463
ECCENTRICITY   = .00021454
INCLINATION    = 98.0202
RA_OF_ASC_NODE = 39.5706
ARG_OF_PERICENTER = 132.1548
MEAN_ANOMALY   = 227.9847

EPHEMERIS_TYPE = 0
CLASSIFICATION_TYPE = U
NORAD_CAT_ID   = 41038
ELEMENT_SET_NO = 999
REV_AT_EPOCH   = 54737
BSTAR          = .13982735E-3
MEAN_MOTION_DOT = .108E-4
MEAN_MOTION_DDOT = 0

CCSDS_OMM_VERS = 2.0
CREATION_DATE  = 
ORIGINATOR     = 

OBJECT_NAME    = ASTRO-H (HITOMI)
OBJECT_ID      = 2016-012A
CENTER_NAME    = EARTH
REF_FRAME      = TEME
TIME_SYSTEM    = UTC
MEAN_ELEMENT_THEORY = SGP/SGP4

EPOCH          = 2026-01-11T05:58:10.561440
MEAN_MOTION    = 15.09579070
ECCENTRICITY   = .00096145
INCLINATION    = 31.0010
RA_OF_ASC_NODE = 7.1034
ARG_OF_PERICENTER = 116.6373
MEAN_ANOMALY   = 243.5251

EPHEMERIS_TYPE = 0
CLASSIFICATION_TYPE = U
NORAD_CAT_ID   = 41337
ELEMENT_SET_NO = 999
REV_AT_EPOCH   = 54354
BSTAR          = .190874E-3
MEAN_MOTION_DOT = .3238E-4
MEAN_MOTION_DDOT = 0

CCSDS_OMM_VERS = 2.0
CREATION_DATE  = 
ORIGINATOR     = 

OBJECT_NAME    = HXMT (HUIYAN)
OBJECT_ID      = 2017-034A
CENTER_NAME    = EARTH
REF_FRAME      = TEME
TIME_SYSTEM    = UTC
MEAN_ELEMENT_THEORY = SGP/SGP4

EPOCH          = 2026-01-11T07:11:06.286848
MEAN_MOTION    = 15.16671964
ECCENTRICITY   = .00333075
INCLINATION    = 43.0158
RA_OF_ASC_NODE = 335.5487
ARG_OF_PERICENTER = 233.1733
MEAN_ANOMALY   = 126.6058

EPHEMERIS_TYPE = 0
CLASSIFICATION_TYPE = U
NORAD_CAT_ID   = 42758
ELEMENT_SET_NO = 999
REV_AT_EPOCH   = 47382
BSTAR          = .3855679E-3
MEAN_MOTION_DOT = .7561E-4
MEAN_MOTION_DDOT = 0

CCSDS_OMM_VERS = 2.0
CREATION_DATE  = 
ORIGINATOR     = 

OBJECT_NAME    = CZ-2C R/B
OBJECT_ID      = 2018-054D
CENTER_NAME    = EARTH
REF_FRAME      = TEME
TIME_SYSTEM    = UTC
MEAN_ELEMENT_THEORY = SGP/SGP4

EPOCH          = 2026-01-11T05:19:54.582528
MEAN_MOTION    = 15.82000575
ECCENTRICITY   = .00103259
INCLINATION    = 35.1341
RA_OF_ASC_NODE = 339.9118
ARG_OF_PERICENTER = 90.1954
MEAN_ANOMALY   = 269.9965

EPHEMERIS_TYPE = 0
CLASSIFICATION_TYPE = U
NORAD_CAT_ID   = 43521
ELEMENT_SET_NO = 999
REV_AT_EPOCH   = 41971
BSTAR          = .96678737E-3
MEAN_MOTION_DOT = .21065E-2
MEAN_MOTION_DDOT = 0

CCSDS_OMM_VERS = 2.0
CREATION_DATE  = 
ORIGINATOR     = 

OBJECT_NAME    = SAOCOM 1A
OBJECT_ID      = 2018-076A
CENTER_NAME    = EARTH
REF_FRAME      = TEME
TIME_SYSTEM    = UTC
MEAN_ELEMENT_THEORY = SGP/SGP4

EPOCH          = 2026-01-11T05:47:45.136032
MEAN_MOTION    = 14.82143856
ECCENTRICITY   = .00015007
INCLINATION    = 97.8854
RA_OF_ASC_NODE = 200.2345
ARG_OF_PERICENTER = 83.5069
MEAN_ANOMALY   = 276.6315

EPHEMERIS_TYPE = 0
CLASSIFICATION_TYPE = U
NORAD_CAT_ID   = 43641
ELEMENT_SET_NO = 999
REV_AT_EPOCH   = 39285
BSTAR          = -.61601826E-4
MEAN_MOTION_DOT = -.542E-5
MEAN_MOTION_DDOT = 0

CCSDS_OMM_VERS = 2.0
CREATION_DATE  = 
ORIGINATOR     = 

OBJECT_NAME    = H-2A R/B
OBJECT_ID      = 2018-084L
CENTER_NAME    = EARTH
REF_FRAME      = TEME
TIME_SYSTEM    = UTC
MEAN_ELEMENT_THEORY = SGP/SGP4

EPOCH          = 2026-01-11T07:04:58.188288
MEAN_MOTION    = 15.38689766
ECCENTRICITY   = .00258277
INCLINATION    = 98.8770
RA_OF_ASC_NODE = 216.5311
ARG_OF_PERICENTER = 221.9475
MEAN_ANOMALY   = 137.9788

EPHEMERIS_TYPE = 0
CLASSIFICATION_TYPE = U
NORAD_CAT_ID   = 43682
ELEMENT_SET_NO = 999
REV_AT_EPOCH   = 39694
BSTAR          = .60989249E-3
MEAN_MOTION_DOT = .23518E-3
MEAN_MOTION_DDOT = 0

CCSDS_OMM_VERS = 2.0
CREATION_DATE  = 
ORIGINATOR     = 

OBJECT_NAME    = SAOCOM 1B
OBJECT_ID      = 2020-059A
CENTER_NAME    = EARTH
REF_FRAME      = TEME
TIME_SYSTEM    = UTC
MEAN_ELEMENT_THEORY = SGP/SGP4

EPOCH          = 2026-01-11T06:32:41.109792
MEAN_MOTION    = 14.82145225
ECCENTRICITY   = .0001313
INCLINATION    = 97.8851
RA_OF_ASC_NODE = 199.3645
ARG_OF_PERICENTER = 86.6373
MEAN_ANOMALY   = 273.4991

EPHEMERIS_TYPE = 0
CLASSIFICATION_TYPE = U
NORAD_CAT_ID   = 46265
ELEMENT_SET_NO = 999
REV_AT_EPOCH   = 29024
BSTAR          = .38642473E-4
MEAN_MOTION_DOT = .255E-5
MEAN_MOTION_DDOT = 0

CCSDS_OMM_VERS = 2.0
CREATION_DATE  = 
ORIGINATOR     = 

OBJECT_NAME    = CSS (TIANHE)
OBJECT_ID      = 2021-035A
CENTER_NAME    = EARTH
REF_FRAME      = TEME
TIME_SYSTEM    = UTC
MEAN_ELEMENT_THEORY = SGP/SGP4

EPOCH          = 2026-01-11T05:33:08.310816
MEAN_MOTION    = 15.60400008
ECCENTRICITY   = .00114367
INCLINATION    = 41.4652
RA_OF_ASC_NODE = 197.4962
ARG_OF_PERICENTER = 262.9938
MEAN_ANOMALY   = 96.9600

EPHEMERIS_TYPE = 0
CLASSIFICATION_TYPE = U
NORAD_CAT_ID   = 48274
ELEMENT_SET_NO = 999
REV_AT_EPOCH   = 26863
BSTAR          = .23136174E-3
MEAN_MOTION_DOT = .19305E-3
MEAN_MOTION_DDOT = 0

CCSDS_OMM_VERS = 2.0
CREATION_DATE  = 
ORIGINATOR     = 

OBJECT_NAME    = COSMOS 2550
OBJECT_ID      = 2021-056A
CENTER_NAME    = EARTH
REF_FRAME      = TEME
TIME_SYSTEM    = UTC
MEAN_ELEMENT_THEORY = SGP/SGP4

EPOCH          = 2026-01-11T06:21:43.083936
MEAN_MOTION    = 15.33833219
ECCENTRICITY   = .00084027
INCLINATION    = 67.1409
RA_OF_ASC_NODE = 214.6276
ARG_OF_PERICENTER = 269.7106
MEAN_ANOMALY   = 90.3085

EPHEMERIS_TYPE = 0
CLASSIFICATION_TYPE = U
NORAD_CAT_ID   = 48865
ELEMENT_SET_NO = 999
REV_AT_EPOCH   = 25465
BSTAR          = .98961E-7
MEAN_MOTION_DOT = -.189E-5
MEAN_MOTION_DDOT = 0

CCSDS_OMM_VERS = 2.0
CREATION_DATE  = 
ORIGINATOR     = 

OBJECT_NAME    = CZ-2C R/B
OBJECT_ID      = 2022-058K
CENTER_NAME    = EARTH
REF_FRAME      = TEME
TIME_SYSTEM    = UTC
MEAN_ELEMENT_THEORY = SGP/SGP4

EPOCH          = 2026-01-11T02:06:29.096928
MEAN_MOTION    = 15.50325931
ECCENTRICITY   = .00431237
INCLINATION    = 50.1901
RA_OF_ASC_NODE = 253.6900
ARG_OF_PERICENTER = 318.7689
MEAN_ANOMALY   = 41.0026

EPHEMERIS_TYPE = 0
CLASSIFICATION_TYPE = U
NORAD_CAT_ID   = 52794
ELEMENT_SET_NO = 999
REV_AT_EPOCH   = 20118
BSTAR          = .46144883E-3
MEAN_MOTION_DOT = .27326E-3
MEAN_MOTION_DDOT = 0

