SL-4 R/B                
1 39679U 14021B   26011.19837312  .00012759  00000+0  29850-3 0  9996
2 39679  51.6074 257.3506 0099530 253.0289 105.9766 15.37458421647429
ALOS-2                  
1 39766U 14029A   26011.29861160  .00000667  00000+0  96237-4 0  9999
2 39766  97.9204 110.7215 0001427  98.5994 261.5380 14.79471126628383
YAOGAN-29               
1 41038U 15069A   26011.30682397  .00001080  00000+0  13983-3 0  9990
2 41038  98.0202  39.5706 0002145 132.1548 227.9847 14.82923463547372
ASTRO-H (HITOMI)        
1 41337U 16012A   26011.24873335  .00003238  00000+0  19087-3 0  9996
2 41337  31.0010   7.1034 0009614 116.6373 243.5251 15.09579070543543
HXMT (HUIYAN)           
1 42758U 17034A   26011.29937832  .00007561  00000+0  38557-3 0  9993
2 42758  43.0158 335.5487 0033307 233.1733 126.6058 15.16671964473820
CZ-2C R/B               
1 43521U 18054D   26011.22215952  .00210650  00000+0  96679-3 0  9994
2 43521  35.1341 339.9118 0010325  90.1954 269.9965 15.82000575419718
SAOCOM 1A               
1 43641U 18076A   26011.24149463 -.00000542  00000+0 -61602-4 0  9994
2 43641  97.8854 200.2345 0001500  83.5069 276.6315 14.82143856392853
H-2A R/B                
1 43682U 18084L   26011.29511792  .00023518  00000+0  60989-3 0  9993
2 43682  98.8770 216.5311 0025827 221.9475 137.9788 15.38689766396940
SAOCOM 1B               
1 46265U 20059A   26011.27269803  .00000255  00000+0  38642-4 0  9994
2 46265  97.8851 199.3645 0001313  86.6373 273.4991 14.82145225290247
CSS (TIANHE)            
1 48274U 21035A   26011.23134619  .00019305  00000+0  23136-3 0  9990
2 48274  41.4652 197.4962 0011436 262.9938  96.9600 15.60400008268630
COSMOS 2550             
1 48865U 21056A   26011.26508199 -.00000189  00000+0  98961-7 0  9993
2 48865  67.1409 214.6276 0008402 269.7106  90.3085 15.33833219254658
CZ-2C R/B               
1 52794U 22058K   26011.08783677  .00027326  00000+0  46145-3 0  9992
2 52794  50.1901 253.6900 0043123 318.7689  41.0026 15.50325931201184
